{"fetched_at":"2026-06-13T17:21:47Z","count":1672,"tles":[{"name":"GAOFEN-8","line1":"1 40701U 15030A   26163.88030130  .00023745  00000+0  49054-3 0  9997","line2":"2 40701  97.6905 356.9937 0008300 202.4775 157.6111 15.45806497610783","category":"Other"},{"name":"ZIYUAN 3-02 (ZY 3-02)","line1":"1 41556U 16033A   26163.84898789  .00005268  00000+0  23721-3 0  9991","line2":"2 41556  97.3842 239.7062 0011348 307.2471  52.7729 15.21440997557322","category":"Other"},{"name":"GAOFEN-2","line1":"1 40118U 14049A   26163.85201440 -.00000129  00000+0 -97816-5 0  9993","line2":"2 40118  98.0114 228.0629 0005955 244.3019 115.7579 14.80891326638593","category":"Other"},{"name":"YAOGAN-29","line1":"1 41038U 15069A   26163.85985001  .00000442  00000+0  60961-4 0  9996","line2":"2 41038  98.0035 192.4858 0002837  61.5524 298.5975 14.83082603569980","category":"Other"},{"name":"SMAP","line1":"1 40376U 15003A   26163.77217773  .00000422  00000+0  90742-4 0  9991","line2":"2 40376  98.1276 170.9293 0001291  94.3370 265.7979 14.63363113606979","category":"Other"},{"name":"JASON-3","line1":"1 41240U 16002A   26163.80845874 -.00000053  00000+0  36018-4 0  9992","line2":"2 41240  66.0398 135.0408 0008558 272.9855  87.0185 12.87627995486687","category":"Other"},{"name":"DEIMOS-2","line1":"1 40013U 14033D   26163.89588103  .00000948  00000+0  94707-4 0  9990","line2":"2 40013  97.5846  38.5361 0001861  52.4152 307.7237 14.93715443637084","category":"Other"},{"name":"SKYSAT-B","line1":"1 40072U 14037D   26163.82152112  .00001269  00000+0  14488-3 0  9993","line2":"2 40072  98.3837 122.5376 0004333 300.6087  59.4700 14.88017568645318","category":"Other"},{"name":"HODOYOSHI-3","line1":"1 40015U 14033F   26163.20008879  .00000979  00000+0  11880-3 0  9998","line2":"2 40015  97.6412 326.4415 0033150  13.7167 346.4942 14.85379079646880","category":"Other"},{"name":"CARBONITE 1 (CBNT-1)","line1":"1 40718U 15032D   26163.79852937  .00002317  00000+0  28693-3 0  9992","line2":"2 40718  97.6506 342.0495 0013377 313.9262  46.0848 14.83577286588696","category":"Other"},{"name":"GAOFEN-9 01","line1":"1 40894U 15047A   26163.87894314  .00000945  00000+0  12209-3 0  9998","line2":"2 40894  97.6276 199.7694 0028083 151.4854 208.7904 14.82876119579556","category":"Other"},{"name":"CARTOSAT-2C","line1":"1 41599U 16040A   26163.84523231  .00004697  00000+0  22563-3 0  9991","line2":"2 41599  97.4489 223.8830 0010146 144.9117 215.2788 15.19282908553052","category":"Other"},{"name":"SKYSAT-C1","line1":"1 41601U 16040C   26163.07062586  .00008233  00000+0  23533-3 0  9999","line2":"2 41601  96.9570 195.0679 0003881  67.9910 292.1748 15.36214421557086","category":"Other"},{"name":"SENTINEL-2A","line1":"1 40697U 15028A   26163.80908779 -.00000011  00000+0  12417-4 0  9999","line2":"2 40697  98.5686 238.7226 0001092  88.1360 271.9948 14.30813887573107","category":"Other"},{"name":"WORLDVIEW-3 (WV-3)","line1":"1 40115U 14048A   26163.85501465  .00000801  00000+0  10014-3 0  9997","line2":"2 40115  97.8566 238.7476 0001330  31.8255 328.3040 14.85015337641268","category":"Other"},{"name":"SENTINEL-3A","line1":"1 41335U 16011A   26163.79837964  .00000094  00000+0  56839-4 0  9993","line2":"2 41335  98.6249 231.2449 0001380 103.1021 257.0314 14.26738829537435","category":"Other"},{"name":"HODOYOSHI-4","line1":"1 40011U 14033B   26163.79793968  .00001643  00000+0  18343-3 0  9998","line2":"2 40011  97.5453 348.8329 0022770 323.5542  36.4124 14.88119039648158","category":"Other"},{"name":"YAOGAN-21","line1":"1 40143U 14053A   26163.83575916  .00007754  00000+0  30097-3 0  9991","line2":"2 40143  97.1485 204.2576 0009921 106.0635 254.1697 15.26311876654296","category":"Other"},{"name":"GAOFEN-4","line1":"1 41194U 15083A   26163.85609115 -.00000321  00000+0  00000+0 0  9994","line2":"2 41194   0.3447  83.8685 0004312 113.1478 118.0721  1.00271177 38481","category":"Other"},{"name":"CBERS 4","line1":"1 40336U 14079A   26163.85509457 -.00000104  00000+0 -21571-4 0  9994","line2":"2 40336  98.3539 220.8224 0001946  67.6424 292.4968 14.35507021603337","category":"Other"}]}