OBJECT_NAME,OBJECT_ID,EPOCH,MEAN_MOTION,ECCENTRICITY,INCLINATION,RA_OF_ASC_NODE,ARG_OF_PERICENTER,MEAN_ANOMALY,EPHEMERIS_TYPE,CLASSIFICATION_TYPE,NORAD_CAT_ID,ELEMENT_SET_NO,REV_AT_EPOCH,BSTAR,MEAN_MOTION_DOT,MEAN_MOTION_DDOT
HODOYOSHI-4,2014-033B,2026-06-12T19:09:01.988352,14.88119039,.002277,97.5453,348.8329,323.5542,36.4124,0,U,40011,999,64815,.18343E-3,.1643E-4,0
DEIMOS-2,2014-033D,2026-06-12T21:30:04.120992,14.93715443,.0001861,97.5846,38.5361,52.4152,307.7237,0,U,40013,999,63708,.94707E-4,.948E-5,0
HODOYOSHI-3,2014-033F,2026-06-12T04:48:07.671456,14.85379079,.00331509,97.6412,326.4415,13.7167,346.4942,0,U,40015,999,64688,.11879768E-3,.979E-5,0
SKYSAT-B,2014-037D,2026-06-12T19:42:59.424768,14.88017568,.0004333,98.3837,122.5376,300.6087,59.4700,0,U,40072,999,64531,.14488E-3,.1269E-4,0
WORLDVIEW-3 (WV-3),2014-048A,2026-06-12T20:31:13.265760,14.85015337,.000133,97.8566,238.7476,31.8255,328.3040,0,U,40115,999,64126,.10014E-3,.801E-5,0
GAOFEN-2,2014-049A,2026-06-12T20:26:54.044160,14.80891326,.0005955,98.0114,228.0629,244.3019,115.7579,0,U,40118,999,63859,-.97816E-5,-.129E-5,0
YAOGAN-21,2014-053A,2026-06-12T20:03:29.591424,15.26311876,.0009921,97.1485,204.2576,106.0635,254.1697,0,U,40143,999,65429,.30097E-3,.7754E-4,0
CBERS 4,2014-079A,2026-06-12T20:31:20.170848,14.35507021,.0001946,98.3539,220.8224,67.6424,292.4968,0,U,40336,999,60333,-.21571E-4,-.104E-5,0
SMAP,2015-003A,2026-06-12T18:31:56.155872,14.63363113,.0001291,98.1276,170.9293,94.3370,265.7979,0,U,40376,999,60697,.90742E-4,.422E-5,0
SENTINEL-2A,2015-028A,2026-06-12T19:25:05.185056,14.30813887,.0001092,98.5686,238.7226,88.1360,271.9948,0,U,40697,999,57310,.12417E-4,-.11E-6,0
GAOFEN-8,2015-030A,2026-06-12T21:07:38.032320,15.45806497,.00083,97.6905,356.9937,202.4775,157.6111,0,U,40701,999,61078,.49054E-3,.23745E-3,0
CARBONITE 1 (CBNT-1),2015-032D,2026-06-12T19:09:52.937568,14.83577286,.0013377,97.6506,342.0495,313.9262,46.0848,0,U,40718,999,58869,.28693E-3,.2317E-4,0
GAOFEN-9 01,2015-047A,2026-06-12T21:05:40.687296,14.82876119,.0028083,97.6276,199.7694,151.4854,208.7904,0,U,40894,999,57955,.12209E-3,.945E-5,0
YAOGAN-29,2015-069A,2026-06-12T20:38:11.040864,14.83082603,.0002837,98.0035,192.4858,61.5524,298.5975,0,U,41038,999,56998,.60961E-4,.442E-5,0
GAOFEN-4,2015-083A,2026-06-12T20:32:46.275360,1.00271177,.0004312,0.3447,83.8685,113.1478,118.0721,0,U,41194,999,3848,0,-.321E-5,0
JASON-3,2016-002A,2026-06-12T19:24:10.835136,12.87627995,.0008558,66.0398,135.0408,272.9855,87.0185,0,U,41240,999,48668,.36018E-4,-.53E-6,0
SENTINEL-3A,2016-011A,2026-06-12T19:09:40.000896,14.26738829,.000138,98.6249,231.2449,103.1021,257.0314,0,U,41335,999,53743,.56839E-4,.94E-6,0
ZIYUAN 3-02 (ZY 3-02),2016-033A,2026-06-12T20:22:32.553696,15.21440997,.0011348,97.3842,239.7062,307.2471,52.7729,0,U,41556,999,55732,.23721E-3,.5268E-4,0
CARTOSAT-2C,2016-040A,2026-06-12T20:17:08.071584,15.19282908,.0010146,97.4489,223.8830,144.9117,215.2788,0,U,41599,999,55305,.22563E-3,.4697E-4,0
SKYSAT-C1,2016-040C,2026-06-12T01:41:42.074304,15.36214421,.00038819,96.9570,195.0679,67.9910,292.1748,0,U,41601,999,55708,.23532924E-3,.8233E-4,0
